start=new Date('2022-08-17T00:00:00.000Z').valueOf();
sats=[{"DECAY_DATE":null,"PERIAPSIS":"546.267","MEAN_MOTION":"15.06393470","MEAN_MOTION_DOT":"0.00001069","TLE_LINE2":"2 46692  53.0552 336.2104 0001395  99.7658 260.3488 15.06393470100853","FILE":"3538178","APOAPSIS":"548.200","SITE":"AFETR","TLE_LINE1":"1 46692U 20073Y   22228.87155072  .00001069  00000-0  90657-4 0  9997","RCS_SIZE":"LARGE","GP_ID":"210366195","MEAN_ELEMENT_THEORY":"SGP4","NORAD_CAT_ID":"46692","ARG_OF_PERICENTER":"99.7658","CLASSIFICATION_TYPE":"U","PERIOD":"95.593","RA_OF_ASC_NODE":"336.2104","INCLINATION":"53.0552","OBJECT_TYPE":"PAYLOAD","CENTER_NAME":"EARTH","REV_AT_EPOCH":"10085","TIME_SYSTEM":"UTC","OBJECT_NAME":"STARLINK-1791","MEAN_MOTION_DDOT":"0.0000000000000","EPHEMERIS_TYPE":"0","EPOCH":"2022-08-16T20:55:01.982208","SEMIMAJOR_AXIS":"6925.369","MEAN_ANOMALY":"260.3488","REF_FRAME":"TEME","COUNTRY_CODE":"US","ELEMENT_SET_NO":"999","OBJECT_ID":"2020-073Y","LAUNCH_DATE":"2020-10-18","ECCENTRICITY":"0.00013950","BSTAR":"0.00009065700000"},{"TLE_LINE2":"2 46693  53.0559 322.9365 0001241 110.4001 249.7121 15.06396383101004","SITE":"AFETR","APOAPSIS":"548.084","FILE":"3537973","PERIAPSIS":"546.365","DECAY_DATE":null,"MEAN_MOTION":"15.06396383","MEAN_MOTION_DOT":"0.00001015","MEAN_ELEMENT_THEORY":"SGP4","NORAD_CAT_ID":"46693","PERIOD":"95.592","ARG_OF_PERICENTER":"110.4001","CLASSIFICATION_TYPE":"U","TLE_LINE1":"1 46693U 20073Z   22228.49143254  .00001015  00000-0  87017-4 0  9992","RCS_SIZE":"LARGE","GP_ID":"210337222","TIME_SYSTEM":"UTC","OBJECT_TYPE":"PAYLOAD","CENTER_NAME":"EARTH","REV_AT_EPOCH":"10100","MEAN_MOTION_DDOT":"0.0000000000000","OBJECT_NAME":"STARLINK-1792","INCLINATION":"53.0559","RA_OF_ASC_NODE":"322.9365","ECCENTRICITY":"0.00012410","LAUNCH_DATE":"2020-10-18","BSTAR":"0.00008701700000","SEMIMAJOR_AXIS":"6925.360","REF_FRAME":"TEME","EPOCH":"2022-08-16T11:47:39.771456","MEAN_ANOMALY":"249.7121","EPHEMERIS_TYPE":"0","OBJECT_ID":"2020-073Z","COUNTRY_CODE":"US","ELEMENT_SET_NO":"999"},{"DECAY_DATE":null,"PERIAPSIS":"546.394","MEAN_MOTION_DOT":"0.00001368","MEAN_MOTION":"15.06394180","TLE_LINE2":"2 46694  53.0543 302.5349 0001209 120.6380 239.4728 15.06394180101306","APOAPSIS":"548.069","FILE":"3538178","SITE":"AFETR","TLE_LINE1":"1 46694U 20073AA  22228.58174253  .00001368  00000-0  11071-3 0  9993","GP_ID":"210367197","RCS_SIZE":"LARGE","MEAN_ELEMENT_THEORY":"SGP4","NORAD_CAT_ID":"46694","CLASSIFICATION_TYPE":"U","ARG_OF_PERICENTER":"120.6380","PERIOD":"95.593","RA_OF_ASC_NODE":"302.5349","INCLINATION":"53.0543","CENTER_NAME":"EARTH","REV_AT_EPOCH":"10130","OBJECT_TYPE":"PAYLOAD","TIME_SYSTEM":"UTC","OBJECT_NAME":"STARLINK-1793","MEAN_MOTION_DDOT":"0.0000000000000","EPHEMERIS_TYPE":"0","SEMIMAJOR_AXIS":"6925.366","EPOCH":"2022-08-16T13:57:42.554592","REF_FRAME":"TEME","MEAN_ANOMALY":"239.4728","OBJECT_ID":"2020-073AA","COUNTRY_CODE":"US","ELEMENT_SET_NO":"999","LAUNCH_DATE":"2020-10-18","ECCENTRICITY":"0.00012090","BSTAR":"0.00011071000000"},{"INCLINATION":"53.0546","RA_OF_ASC_NODE":"303.0440","CENTER_NAME":"EARTH","REV_AT_EPOCH":"10128","OBJECT_TYPE":"PAYLOAD","TIME_SYSTEM":"UTC","OBJECT_NAME":"STARLINK-1795","MEAN_MOTION_DDOT":"0.0000000000000","EPHEMERIS_TYPE":"0","EPOCH":"2022-08-16T11:13:09.651648","SEMIMAJOR_AXIS":"6925.350","MEAN_ANOMALY":"284.0125","REF_FRAME":"TEME","ELEMENT_SET_NO":"999","COUNTRY_CODE":"US","OBJECT_ID":"2020-073AC","LAUNCH_DATE":"2020-10-18","ECCENTRICITY":"0.00014180","BSTAR":"0.00004595900000","DECAY_DATE":null,"PERIAPSIS":"546.233","MEAN_MOTION_DOT":"0.00000403","MEAN_MOTION":"15.06399532","TLE_LINE2":"2 46696  53.0546 303.0440 0001418  76.1022 284.0125 15.06399532101289","APOAPSIS":"548.197","FILE":"3537973","SITE":"AFETR","TLE_LINE1":"1 46696U 20073AC  22228.46747282  .00000403  00000-0  45959-4 0  9992","GP_ID":"210336720","RCS_SIZE":"LARGE","NORAD_CAT_ID":"46696","MEAN_ELEMENT_THEORY":"SGP4","CLASSIFICATION_TYPE":"U","ARG_OF_PERICENTER":"76.1022","PERIOD":"95.592"},{"TLE_LINE1":"1 46698U 20073AE  22228.45732211  .00001810  00000-0  14039-3 0  9996","GP_ID":"210336972","RCS_SIZE":"LARGE","MEAN_ELEMENT_THEORY":"SGP4","NORAD_CAT_ID":"46698","CLASSIFICATION_TYPE":"U","ARG_OF_PERICENTER":"97.9901","PERIOD":"95.592","DECAY_DATE":null,"PERIAPSIS":"546.306","MEAN_MOTION_DOT":"0.00001810","MEAN_MOTION":"15.06397825","TLE_LINE2":"2 46698  53.0558 323.0660 0001320  97.9901 262.1238 15.06397825101004","FILE":"3537973","APOAPSIS":"548.134","SITE":"AFETR","EPHEMERIS_TYPE":"0","REF_FRAME":"TEME","SEMIMAJOR_AXIS":"6925.355","EPOCH":"2022-08-16T10:58:32.630304","MEAN_ANOMALY":"262.1238","COUNTRY_CODE":"US","ELEMENT_SET_NO":"999","OBJECT_ID":"2020-073AE","LAUNCH_DATE":"2020-10-18","ECCENTRICITY":"0.00013200","BSTAR":"0.00014039000000","INCLINATION":"53.0558","RA_OF_ASC_NODE":"323.0660","CENTER_NAME":"EARTH","REV_AT_EPOCH":"10100","OBJECT_TYPE":"PAYLOAD","TIME_SYSTEM":"UTC","OBJECT_NAME":"STARLINK-1797","MEAN_MOTION_DDOT":"0.0000000000000"},{"BSTAR":"0.00011496000000","ECCENTRICITY":"0.00012220","LAUNCH_DATE":"2020-10-18","OBJECT_ID":"2020-073AF","COUNTRY_CODE":"US","ELEMENT_SET_NO":"999","REF_FRAME":"TEME","SEMIMAJOR_AXIS":"6925.359","MEAN_ANOMALY":"257.6124","EPOCH":"2022-08-16T11:05:11.904576","EPHEMERIS_TYPE":"0","MEAN_MOTION_DDOT":"0.0000000000000","OBJECT_NAME":"STARLINK-1799","TIME_SYSTEM":"UTC","OBJECT_TYPE":"PAYLOAD","CENTER_NAME":"EARTH","REV_AT_EPOCH":"10100","INCLINATION":"53.0552","RA_OF_ASC_NODE":"323.0620","PERIOD":"95.592","ARG_OF_PERICENTER":"102.5002","CLASSIFICATION_TYPE":"U","MEAN_ELEMENT_THEORY":"SGP4","NORAD_CAT_ID":"46699","RCS_SIZE":"LARGE","GP_ID":"210337722","TLE_LINE1":"1 46699U 20073AF  22228.46194334  .00001431  00000-0  11496-3 0  9999","SITE":"AFETR","APOAPSIS":"548.070","FILE":"3537973","TLE_LINE2":"2 46699  53.0552 323.0620 0001222 102.5002 257.6124 15.06396644101002","MEAN_MOTION":"15.06396644","MEAN_MOTION_DOT":"0.00001431","PERIAPSIS":"546.378","DECAY_DATE":null},{"GP_ID":"210336470","RCS_SIZE":"LARGE","TLE_LINE1":"1 46700U 20073AG  22228.46609219 -.00000436  00000-0 -10374-4 0  9996","PERIOD":"95.592","CLASSIFICATION_TYPE":"U","ARG_OF_PERICENTER":"72.5814","NORAD_CAT_ID":"46700","MEAN_ELEMENT_THEORY":"SGP4","MEAN_MOTION_DOT":"-0.00000436","MEAN_MOTION":"15.06396521","PERIAPSIS":"546.447","DECAY_DATE":null,"SITE":"AFETR","APOAPSIS":"548.001","FILE":"3537973","TLE_LINE2":"2 46700  53.0555 338.0486 0001122  72.5814 287.5297 15.06396521100792","COUNTRY_CODE":"US","OBJECT_ID":"2020-073AG","ELEMENT_SET_NO":"999","REF_FRAME":"TEME","SEMIMAJOR_AXIS":"6925.359","EPOCH":"2022-08-16T11:11:10.365216","MEAN_ANOMALY":"287.5297","EPHEMERIS_TYPE":"0","BSTAR":"-0.00001037400000","ECCENTRICITY":"0.00011220","LAUNCH_DATE":"2020-10-18","RA_OF_ASC_NODE":"338.0486","INCLINATION":"53.0555","MEAN_MOTION_DDOT":"0.0000000000000","OBJECT_NAME":"STARLINK-1800","TIME_SYSTEM":"UTC","REV_AT_EPOCH":"10079","CENTER_NAME":"EARTH","OBJECT_TYPE":"PAYLOAD"},{"BSTAR":"0.00012214000000","ECCENTRICITY":"0.00013270","LAUNCH_DATE":"2020-10-18","COUNTRY_CODE":"US","ELEMENT_SET_NO":"999","OBJECT_ID":"2020-073AH","SEMIMAJOR_AXIS":"6925.360","EPOCH":"2022-08-16T11:58:16.694112","REF_FRAME":"TEME","MEAN_ANOMALY":"272.9869","EPHEMERIS_TYPE":"0","MEAN_MOTION_DDOT":"0.0000000000000","OBJECT_NAME":"STARLINK-1801","TIME_SYSTEM":"UTC","OBJECT_TYPE":"PAYLOAD","REV_AT_EPOCH":"10101","CENTER_NAME":"EARTH","RA_OF_ASC_NODE":"322.9070","INCLINATION":"53.0549","PERIOD":"95.592","ARG_OF_PERICENTER":"87.1272","CLASSIFICATION_TYPE":"U","MEAN_ELEMENT_THEORY":"SGP4","NORAD_CAT_ID":"46701","RCS_SIZE":"LARGE","GP_ID":"210336221","TLE_LINE1":"1 46701U 20073AH  22228.49880433  .00001538  00000-0  12214-3 0  9995","SITE":"AFETR","APOAPSIS":"548.144","FILE":"3537973","TLE_LINE2":"2 46701  53.0549 322.9070 0001327  87.1272 272.9869 15.06396274101018","MEAN_MOTION":"15.06396274","MEAN_MOTION_DOT":"0.00001538","PERIAPSIS":"546.306","DECAY_DATE":null},{"OBJECT_ID":"2020-073AJ","COUNTRY_CODE":"US","ELEMENT_SET_NO":"999","SEMIMAJOR_AXIS":"6925.355","EPOCH":"2022-08-16T13:52:23.140704","REF_FRAME":"TEME","MEAN_ANOMALY":"293.4170","EPHEMERIS_TYPE":"0","BSTAR":"0.00000516100000","ECCENTRICITY":"0.00014460","LAUNCH_DATE":"2020-10-18","INCLINATION":"53.0538","RA_OF_ASC_NODE":"302.5479","MEAN_MOTION_DDOT":"0.0000000000000","OBJECT_NAME":"STARLINK-1802","TIME_SYSTEM":"UTC","OBJECT_TYPE":"PAYLOAD","CENTER_NAME":"EARTH","REV_AT_EPOCH":"10130","RCS_SIZE":"LARGE","GP_ID":"210366196","TLE_LINE1":"1 46702U 20073AJ  22228.57804561 -.00000205  00000-0  51610-5 0  9999","PERIOD":"95.592","ARG_OF_PERICENTER":"66.6971","CLASSIFICATION_TYPE":"U","NORAD_CAT_ID":"46702","MEAN_ELEMENT_THEORY":"SGP4","MEAN_MOTION":"15.06398012","MEAN_MOTION_DOT":"-0.00000205","PERIAPSIS":"546.218","DECAY_DATE":null,"SITE":"AFETR","FILE":"3538178","APOAPSIS":"548.221","TLE_LINE2":"2 46702  53.0538 302.5479 0001446  66.6971 293.4170 15.06398012101301"},{"TIME_SYSTEM":"UTC","OBJECT_TYPE":"PAYLOAD","CENTER_NAME":"EARTH","REV_AT_EPOCH":"10104","MEAN_MOTION_DDOT":"0.0000000000000","OBJECT_NAME":"STARLINK-1803","INCLINATION":"53.0556","RA_OF_ASC_NODE":"321.7916","ECCENTRICITY":"0.00013490","LAUNCH_DATE":"2020-10-18","BSTAR":"0.00002627000000","REF_FRAME":"TEME","SEMIMAJOR_AXIS":"6925.339","MEAN_ANOMALY":"282.5522","EPOCH":"2022-08-16T17:48:35.287776","EPHEMERIS_TYPE":"0","COUNTRY_CODE":"US","OBJECT_ID":"2020-073AK","ELEMENT_SET_NO":"999","TLE_LINE2":"2 46703  53.0556 321.7916 0001349  77.5618 282.5522 15.06402983101046","SITE":"AFETR","FILE":"3538178","APOAPSIS":"548.139","PERIAPSIS":"546.270","DECAY_DATE":null,"MEAN_MOTION":"15.06402983","MEAN_MOTION_DOT":"0.00000110","MEAN_ELEMENT_THEORY":"SGP4","NORAD_CAT_ID":"46703","PERIOD":"95.592","ARG_OF_PERICENTER":"77.5618","CLASSIFICATION_TYPE":"U","TLE_LINE1":"1 46703U 20073AK  22228.74207509  .00000110  00000-0  26270-4 0  9995","RCS_SIZE":"LARGE","GP_ID":"210365947"}];
